[
    {
        "Altitude(m)": 557738.6355329307,
        "Argument of Periapsis(deg)": 0.033114955553567506,
        "Eccentricity": 0.0,
        "Inclination(deg)": 53.0,
        "Latitude(deg)": 43.665338470050706,
        "Longitude(deg)": 76.68010787781084,
        "Mean Anomaly(deg)": 59.548964337887945,
        "RAAN(deg)": 134.95071684264008,
        "Satellite Name": "Starlink Shell 1 594",
        "Satellite Number": 594,
        "Semi-Major Axis(m)": 6931778.249405717,
        "Time(s)": 950
    },
    {
        "Altitude(m)": 557816.3981414486,
        "Argument of Periapsis(deg)": 0.03346353403307874,
        "Eccentricity": 0.0,
        "Inclination(deg)": 53.0,
        "Latitude(deg)": 44.01360277473549,
        "Longitude(deg)": 77.36040249414545,
        "Mean Anomaly(deg)": 60.175795541444664,
        "RAAN(deg)": 134.9501980725626,
        "Satellite Name": "Starlink Shell 1 594",
        "Satellite Number": 594,
        "Semi-Major Axis(m)": 6931778.249405717,
        "Time(s)": 960
    },
    {
        "Altitude(m)": 557893.3677733089,
        "Argument of Periapsis(deg)": 0.03381211251258998,
        "Eccentricity": 0.0,
        "Inclination(deg)": 53.0,
        "Latitude(deg)": 44.35723650392635,
        "Longitude(deg)": 78.04912741994784,
        "Mean Anomaly(deg)": 60.80262674500138,
        "RAAN(deg)": 134.94967930248512,
        "Satellite Name": "Starlink Shell 1 594",
        "Satellite Number": 594,
        "Semi-Major Axis(m)": 6931778.249405717,
        "Time(s)": 970
    },
    {
        "Altitude(m)": 557969.4960839769,
        "Argument of Periapsis(deg)": 0.034160690992101214,
        "Eccentricity": 0.0,
        "Inclination(deg)": 53.0,
        "Latitude(deg)": 44.69613060783686,
        "Longitude(deg)": 78.74636735216099,
        "Mean Anomaly(deg)": 61.42945794855808,
        "RAAN(deg)": 134.94916053240766,
        "Satellite Name": "Starlink Shell 1 594",
        "Satellite Number": 594,
        "Semi-Major Axis(m)": 6931778.249405717,
        "Time(s)": 980
    },
    {
        "Altitude(m)": 558044.7353642473,
        "Argument of Periapsis(deg)": 0.034509269471612446,
        "Eccentricity": 0.0,
        "Inclination(deg)": 53.0,
        "Latitude(deg)": 45.03017435564717,
        "Longitude(deg)": 79.4522022711841,
        "Mean Anomaly(deg)": 62.05628915211478,
        "RAAN(deg)": 134.9486417623302,
        "Satellite Name": "Starlink Shell 1 594",
        "Satellite Number": 594,
        "Semi-Major Axis(m)": 6931778.249405717,
        "Time(s)": 990
    }
]